NORAD_CAT_ID,OBJECT_NAME,OBJECT_TYPE,EPOCH,MEAN_MOTION,ECCENTRICITY,INCLINATION,RA_OF_ASC_NODE,ARG_OF_PERICENTER,MEAN_ANOMALY,BSTAR,MEAN_MOTION_DOT,MEAN_MOTION_DDOT,TLE_LINE0,TLE_LINE1,TLE_LINE2,SEMIMAJOR_AXIS,PERIOD,APOGEE,PERIGEE,DECAYED
51896.0,STARLINK-3593,PAYLOAD,2023-06-15 07:08:19,15.08834349,0.0001168,53.2165,161.0768,90.9849,269.1277,3.4219e-05,2.57e-06,0.0,0 STARLINK-3593,1 51896U 22022AW  23166.29744621  .00000257  00000-0  34219-4 0  9997,2 51896  53.2165 161.0768 0001168  90.9849 269.1277 15.08834349 72577,6917.898,95.438,540.571,538.955,0.0
51896.0,STARLINK-3593,PAYLOAD,2023-06-16 06:59:05,15.08843804,0.0001201,53.2164,156.6165,90.7252,269.3878,8.3107e-05,1.035e-05,0.0,0 STARLINK-3593,1 51896U 22022AW  23167.29103997  .00001035  00000-0  83107-4 0  9998,2 51896  53.2164 156.6165 0001201  90.7252 269.3878 15.08843804 72723,6917.869,95.437,540.565,538.903,0.0
51896.0,STARLINK-3593,PAYLOAD,2023-06-16 16:31:24,15.08842121,0.0001244,53.2167,154.8325,89.4239,270.6896,6.8644e-05,8.05e-06,0.0,0 STARLINK-3593,1 51896U 22022AW  23167.68848095  .00000805  00000-0  68644-4 0  9999,2 51896  53.2167 154.8325 0001244  89.4239 270.6896 15.08842121 72783,6917.874,95.437,540.599,538.878,0.0
51896.0,STARLINK-3593,PAYLOAD,2023-06-17 08:25:16,15.08842241,0.0001193,53.2161,151.8589,92.1455,267.9673,6.7403e-05,7.85e-06,0.0,0 STARLINK-3593,1 51896U 22022AW  23168.35088006  .00000785  00000-0  67403-4 0  9991,2 51896  53.2161 151.8589 0001193  92.1455 267.9673 15.08842241 72886,6917.874,95.437,540.564,538.913,0.0
51896.0,STARLINK-3593,PAYLOAD,2023-06-17 16:22:11,15.08839782,0.0001173,53.2161,150.3723,91.1247,268.9879,3.2217e-05,2.25e-06,0.0,0 STARLINK-3593,1 51896U 22022AW  23168.68208238  .00000225  00000-0  32217-4 0  9992,2 51896  53.2161 150.3723 0001173  91.1247 268.9879 15.08839782 72937,6917.881,95.438,540.558,538.935,0.0
51896.0,STARLINK-3593,PAYLOAD,2023-06-18 05:05:17,15.08835973,0.0002428,53.216,147.9932,96.4285,263.6983,-5.899e-05,-1.227e-05,0.0,0 STARLINK-3593,1 51896U 22022AW  23169.21200812 -.00001227  00000-0 -58990-4 0  9993,2 51896  53.2160 147.9932 0002428  96.4285 263.6983 15.08835973 73010,6917.893,95.438,541.437,538.078,0.0
51896.0,STARLINK-3593,PAYLOAD,2023-06-18 16:12:59,15.08833094,0.0001474,53.218,145.9056,103.7694,256.3463,-4.3373e-05,-9.78e-06,0.0,0 STARLINK-3593,1 51896U 22022AW  23169.67569041 -.00000978  00000-0 -43373-4 0  9996,2 51896  53.2180 145.9056 0001474 103.7694 256.3463 15.08833094 73084,6917.901,95.438,540.786,538.747,0.0
51896.0,STARLINK-3593,PAYLOAD,2023-06-19 08:06:50,15.08839644,0.000116,53.2155,142.9383,92.1589,267.9536,3.3456e-05,2.45e-06,0.0,0 STARLINK-3593,1 51896U 22022AW  23170.33808388  .00000245  00000-0  33456-4 0  9997,2 51896  53.2155 142.9383 0001160  92.1589 267.9536 15.08839644 73189,6917.881,95.438,540.549,538.944,0.0
51896.0,STARLINK-3593,PAYLOAD,2023-06-20 06:22:14,15.08843395,0.0001462,53.2166,138.7758,81.5573,278.5585,-6.1711e-05,-1.27e-05,0.0,0 STARLINK-3593,1 51896U 22022AW  23171.26544674 -.00001270  00000-0 -61711-4 0  9991,2 51896  53.2166 138.7758 0001462  81.5573 278.5585 15.08843395 73326,6917.87,95.437,540.746,538.724,0.0
51896.0,STARLINK-3593,PAYLOAD,2023-06-20 14:19:10,15.08835128,0.0001159,53.2162,137.2891,91.9574,268.155,3.8475e-05,3.24e-06,0.0,0 STARLINK-3593,1 51896U 22022AW  23171.59664990  .00000324  00000-0  38475-4 0  9999,2 51896  53.2162 137.2891 0001159  91.9574 268.1550 15.08835128 73370,6917.895,95.438,540.562,538.958,0.0
51896.0,STARLINK-3593,PAYLOAD,2023-06-21 04:37:38,15.08841824,0.0001191,53.2169,134.6125,90.1399,269.973,5.5291e-05,5.92e-06,0.0,0 STARLINK-3593,1 51896U 22022AW  23172.19280643  .00000592  00000-0  55291-4 0  9997,2 51896  53.2169 134.6125 0001191  90.1399 269.9730 15.08841824 73469,6917.875,95.437,540.564,538.916,0.0
51896.0,STARLINK-3593,PAYLOAD,2023-06-21 14:09:57,15.08839157,0.0001184,53.2169,132.8282,87.931,272.1818,4.0212e-05,3.52e-06,0.0,0 STARLINK-3593,1 51896U 22022AW  23172.59024854  .00000352  00000-0  40212-4 0  9992,2 51896  53.2169 132.8282 0001184  87.9310 272.1818 15.08839157 73528,6917.883,95.438,540.567,538.929,0.0
51896.0,STARLINK-3593,PAYLOAD,2023-06-22 02:53:03,15.08832156,0.0001289,53.2174,130.4518,93.8753,266.2387,2.3267e-05,8.2e-07,0.0,0 STARLINK-3593,1 51896U 22022AW  23173.12017556  .00000082  00000-0  23267-4 0  9994,2 51896  53.2174 130.4518 0001289  93.8753 266.2387 15.08832156 73609,6917.904,95.438,540.661,538.878,0.0
51896.0,STARLINK-3593,PAYLOAD,2023-06-23 01:08:26,15.08844659,0.0001304,53.2177,126.2886,98.9469,261.1671,6.1369e-05,6.89e-06,0.0,0 STARLINK-3593,1 51896U 22022AW  23174.04752826  .00000689  00000-0  61369-4 0  9990,2 51896  53.2177 126.2886 0001304  98.9469 261.1671 15.08844659 73747,6917.866,95.437,540.633,538.829,0.0
51896.0,STARLINK-3593,PAYLOAD,2023-06-24 02:34:37,15.08832323,0.0001118,53.215,121.5271,81.656,278.4558,8.0882e-05,9.99e-06,0.0,0 STARLINK-3593,1 51896U 22022AW  23175.10737575  .00000999  00000-0  80882-4 0  9997,2 51896  53.2150 121.5271 0001118  81.6560 278.4558 15.08832323 73906,6917.904,95.438,540.542,538.995,0.0
51896.0,STARLINK-3593,PAYLOAD,2023-06-24 05:45:23,15.08840704,0.0001238,53.2166,120.9332,84.6897,275.4236,7.4071e-05,8.91e-06,0.0,0 STARLINK-3593,1 51896U 22022AW  23175.23985170  .00000891  00000-0  74071-4 0  9991,2 51896  53.2166 120.9332 0001238  84.6897 275.4236 15.08840704 73927,6917.878,95.438,540.6,538.887,0.0
51896.0,STARLINK-3593,PAYLOAD,2023-06-24 13:42:19,15.08835176,0.00012,53.2164,119.4462,85.3957,274.7173,1.069e-05,-1.18e-06,0.0,0 STARLINK-3593,1 51896U 22022AW  23175.57105749 -.00000118  00000-0  10690-4 0  9994,2 51896  53.2164 119.4462 0001200  85.3957 274.7173 15.08835176 73970,6917.895,95.438,540.59,538.93,0.0
51896.0,STARLINK-3593,PAYLOAD,2023-06-25 05:36:10,15.08847922,0.0001283,53.2166,116.4722,89.6344,270.4795,1.9385e-05,2.1e-07,0.0,0 STARLINK-3593,1 51896U 22022AW  23176.23344998  .00000021  00000-0  19385-4 0  9991,2 51896  53.2166 116.4722 0001283  89.6344 270.4795 15.08847922 74073,6917.856,95.437,540.609,538.834,0.0
51896.0,STARLINK-3593,PAYLOAD,2023-06-26 19:45:26,15.08832329,0.0001562,53.2168,109.3345,103.3538,256.7628,-9.287e-06,-4.36e-06,0.0,0 STARLINK-3593,1 51896U 22022AW  23177.82322218 -.00000436  00000-0 -92870-5 0  9991,2 51896  53.2168 109.3345 0001562 103.3538 256.7628 15.08832329 74310,6917.904,95.438,540.849,538.688,0.0
51896.0,STARLINK-3593,PAYLOAD,2023-06-27 05:17:44,15.08838935,0.0001194,53.2175,107.5524,90.5328,269.5801,-1.6557e-05,-5.51e-06,0.0,0 STARLINK-3593,1 51896U 22022AW  23178.22065789 -.00000551  00000-0 -16557-4 0  9998,2 51896  53.2175 107.5524 0001194  90.5328 269.5801 15.08838935 74372,6917.884,95.438,540.575,538.923,0.0
51896.0,STARLINK-3593,PAYLOAD,2023-06-28 01:57:45,15.08845122,0.0001155,53.2181,103.6893,102.0184,258.0938,-1.3774e-05,-5.07e-06,0.0,0 STARLINK-3593,1 51896U 22022AW  23179.08177541 -.00000507  00000-0 -13774-4 0  9992,2 51896  53.2181 103.6893 0001155 102.0184 258.0938 15.08845122 74506,6917.865,95.437,540.529,538.931,0.0
51896.0,STARLINK-3593,PAYLOAD,2023-06-29 03:23:55,15.08835319,0.0001011,53.2177,98.9305,95.5736,264.5371,0.00014515,2.023e-05,0.0,0 STARLINK-3593,1 51896U 22022AW  23180.14162004  .00002023  00000-0  14515-3 0  9995,2 51896  53.2177  98.9305 0001011  95.5736 264.5371 15.08835319 74662,6917.895,95.438,540.459,539.06,0.0
51896.0,STARLINK-3593,PAYLOAD,2023-06-30 11:11:38,15.08840696,0.0001114,53.2181,92.984,87.262,272.85,3.8867e-05,3.31e-06,0.0,0 STARLINK-3593,1 51896U 22022AW  23181.46642046  .00000331  00000-0  38867-4 0  9997,2 51896  53.2181  92.9840 0001114  87.2620 272.8500 15.08840696 74861,6917.878,95.438,540.514,538.973,0.0
51896.0,STARLINK-3593,PAYLOAD,2023-07-01 01:30:08,15.08811875,0.0001171,53.2181,90.308,89.8538,270.2589,0.00021758,3.174e-05,0.0,0 STARLINK-3593,1 51896U 22022AW  23182.06259363  .00003174  00000-0  21758-3 0  9998,2 51896  53.2181  90.3080 0001171  89.8538 270.2589 15.08811875 74954,6917.966,95.439,540.641,539.021,0.0
51896.0,STARLINK-3593,PAYLOAD,2023-07-01 03:05:30,15.08830572,0.0001146,53.2179,90.0096,91.7139,268.3985,2.7508e-05,1.5e-06,0.0,0 STARLINK-3593,1 51896U 22022AW  23182.12882905  .00000150  00000-0  27508-4 0  9990,2 51896  53.2179  90.0096 0001146  91.7139 268.3985 15.08830572 74960,6917.909,95.438,540.567,538.981,0.0
51896.0,STARLINK-3593,PAYLOAD,2023-07-02 01:20:54,15.08841555,0.0001085,53.2175,85.8462,78.5006,281.6107,6.4528e-06,-1.85e-06,0.0,0 STARLINK-3593,1 51896U 22022AW  23183.05618522 -.00000185  00000-0  64528-5 0  9998,2 51896  53.2175  85.8462 0001085  78.5006 281.6107 15.08841555 75107,6917.876,95.437,540.491,538.99,0.0
51896.0,STARLINK-3593,PAYLOAD,2023-07-03 10:43:59,15.08843749,0.00011,53.2178,79.6016,76.1563,283.9552,0.00010272,1.348e-05,0.0,0 STARLINK-3593,1 51896U 22022AW  23184.44722031  .00001348  00000-0  10272-3 0  9999,2 51896  53.2178  79.6016 0001100  76.1563 283.9552 15.08843749 75315,6917.869,95.437,540.495,538.973,0.0
51896.0,STARLINK-3593,PAYLOAD,2023-07-03 17:05:33,15.0882791,0.0001204,53.2178,78.4129,79.9101,280.2027,0.00017357,2.475e-05,0.0,0 STARLINK-3593,1 51896U 22022AW  23184.71218845  .00002475  00000-0  17357-3 0  9995,2 51896  53.2178  78.4129 0001204  79.9101 280.2027 15.08827910 75354,6917.917,95.438,540.615,538.949,0.0
51896.0,STARLINK-3593,PAYLOAD,2023-07-04 02:37:50,15.0884811,0.0001174,53.2177,76.6283,80.5166,279.5958,7.1887e-05,8.57e-06,0.0,0 STARLINK-3593,1 51896U 22022AW  23185.10961793  .00000857  00000-0  71887-4 0  9997,2 51896  53.2177  76.6283 0001174  80.5166 279.5958 15.08848110 75415,6917.856,95.437,540.533,538.908,0.0
51896.0,STARLINK-3593,PAYLOAD,2023-07-04 23:17:52,15.08840578,0.0001197,53.2177,72.7628,87.3081,272.8048,-4.4322e-05,-9.93e-06,0.0,0 STARLINK-3593,1 51896U 22022AW  23185.97074631 -.00000993  00000-0 -44322-4 0  9995,2 51896  53.2177  72.7628 0001197  87.3081 272.8048 15.08840578 75541,6917.879,95.438,540.572,538.916,0.0
